[{"OBJECT_NAME":"STARLINK-35746","OBJECT_ID":"2025-268AB","EPOCH":"2026-03-09T04:06:48.489120","MEAN_MOTION":15.27577048,"ECCENTRICITY":0.00015387,"INCLINATION":43.0025,"RA_OF_ASC_NODE":349.7148,"ARG_OF_PERICENTER":252.3791,"MEAN_ANOMALY":107.6892,"EPHEMERIS_TYPE":0,"CLASSIFICATION_TYPE":"U","NORAD_CAT_ID":66582,"ELEMENT_SET_NO":999,"REV_AT_EPOCH":1788,"BSTAR":0.0010504088,"MEAN_MOTION_DOT":0.00028753,"MEAN_MOTION_DDOT":0},{"OBJECT_NAME":"SL-3 R\/B","OBJECT_ID":"1983-003B","EPOCH":"2026-03-09T21:31:00.897888","MEAN_MOTION":15.34640469,"ECCENTRICITY":0.00285789,"INCLINATION":81.155,"RA_OF_ASC_NODE":261.9078,"ARG_OF_PERICENTER":155.4571,"MEAN_ANOMALY":204.8036,"EPHEMERIS_TYPE":0,"CLASSIFICATION_TYPE":"U","NORAD_CAT_ID":13771,"ELEMENT_SET_NO":999,"REV_AT_EPOCH":35642,"BSTAR":0.00033440366,"MEAN_MOTION_DOT":0.00011405,"MEAN_MOTION_DDOT":0}]
